STARLINK-35759          
1 69246U 26117J   26168.67478256  .00198956  00000+0  93579-3 0  9995
2 69246  53.1569 241.0219 0000788  93.2044 266.9069 15.82057442  3056
STARLINK-37238          
1 69247U 26117K   26168.67034131  .00120697  00000+0  57477-3 0  9990
2 69247  53.1569 240.9915 0000973  98.1029 262.0105 15.82036333  3055
STARLINK-37412          
1 69248U 26117L   26168.66697014  .00143764  00000+0  68183-3 0  9991
2 69248  53.1569 240.9688 0000942 105.8871 254.2256 15.82046207  3051
STARLINK-37398          
1 69249U 26117M   26168.67162855  .00122908  00000+0  61600-3 0  9997
2 69249  53.1576 241.0003 0000795  92.0272 268.0842 15.80923048  3050
STARLINK-37499          
1 69250U 26117N   26168.66525390  .00122168  00000+0  58168-3 0  9998
2 69250  53.1568 240.9564 0000927  86.1316 273.9813 15.82034596  3059
STARLINK-37489          
1 69251U 26117P   26168.66349250  .00206986  00000+0  97205-3 0  9994
2 69251  53.1571 240.9461 0000795 102.7921 257.3191 15.82067811  3051
STARLINK-37434          
1 69252U 26117Q   26168.66052274  .00119067  00000+0  56724-3 0  9996
2 69252  53.1569 240.9243 0000930 106.2645 253.8480 15.82033365  3059
STARLINK-37368          
1 69253U 26117R   26168.65377888  .00100435  00000+0  48014-3 0  9999
2 69253  53.1572 240.8784 0000889  90.5405 269.5720 15.82028959  3059
STARLINK-37517          
1 69254U 26117S   26168.65245861  .00152638  00000+0  72303-3 0  9995
2 69254  53.1570 240.8700 0000809 131.6385 228.4708 15.82044264  3059
STARLINK-37378          
1 69255U 26117T   26168.65212837  .00441130  00000+0  20043-2 0  9994
2 69255  53.1567 240.8686 0001294  21.4298 338.6780 15.82151938  3058
STARLINK-37396          
1 69256U 26117U   26168.71285150  .00131265  00000+0  62397-3 0  9994
2 69256  53.1567 240.5317 0000802  85.3160 274.7954 15.82038611  3064
STARLINK-37508          
1 69257U 26117V   26168.65216433 -.00034518  00000+0 -17214-3 0  9999
2 69257  53.1574 240.8651 0001130 133.7096 226.4020 15.80859775  3055
STARLINK-37276          
1 69258U 26117W   26168.68885832 -.04562456  00000+0 -32766-1 0  9996
2 69258  53.1569 240.3665 0015407 119.5300 240.7259 15.76753990  3063
STARLINK-37518          
1 69259U 26117X   26168.68965501  .00071475  00000+0  36233-3 0  9994
2 69259  53.1567 240.3730 0001613  58.4994 301.6186 15.80892884  3066
STARLINK-37478          
1 69260U 26117Y   26168.68987698  .00117779  00000+0  59068-3 0  9996
2 69260  53.1571 240.3756 0000917  83.9366 276.1761 15.80927419  3061
STARLINK-37506          
1 69261U 26117Z   26168.68939037  .00138173  00000+0  69071-3 0  9997
2 69261  53.1568 240.3714 0001253  75.3017 284.8145 15.80927251  3060
STARLINK-37503          
1 69262U 26117AA  26168.68913262  .00184394  00000+0  91486-3 0  9991
2 69262  53.1569 240.3705 0001175  78.7993 281.3161 15.80946401  3063
STARLINK-37502          
1 69263U 26117AB  26168.83335647 -.00030016  00000+0 -14892-3 0  9993
2 69263  53.1570 239.6412 0001037  79.4817  24.8200 15.80894184  4281
STARLINK-37486          
1 69264U 26117AC  26168.68739810  .00110335  00000+0  55429-3 0  9999
2 69264  53.1571 240.3569 0000758  68.4684 291.6420 15.80917642  3062
STARLINK-37435          
1 69265U 26117AD  26168.83335647 -.00026009  00000+0 -12855-3 0  9999
2 69265  53.1571 239.6434 0001100  71.3689  31.4177 15.80885068  4285
STARLINK-37464          
1 69266U 26117AE  26168.68408059  .00104186  00000+0  49785-3 0  9994
2 69266  53.1569 240.3341 0000854  71.4665 288.6451 15.82023769  3069
KUIPER-00282            
1 69267U 26118A   26168.87360426  .00015625  00000+0  47440-3 0  9997
2 69267  51.8594  50.2637 0012132 183.9458 176.1433 15.34193204  4083
KUIPER-00383            
1 69268U 26118B   26168.80539132  .00021701  00000+0  65278-3 0  9994
2 69268  51.8600  50.5591 0010364 183.9657 176.1248 15.34268103  4074
KUIPER-00527            
1 69269U 26118C   26168.80053248  .00002661  00000+0  88860-4 0  9991
2 69269  51.8626  50.5303 0010088 176.9558 183.1491 15.34762379  4071
KUIPER-00562            
1 69270U 26118D   26168.83078852  .00018293  00000+0  48075-3 0  9995
2 69270  51.8721  49.9931 0001799 118.0696 242.0473 15.38647989  4086
KUIPER-00570            
1 69271U 26118E   26168.80291441  .00017707  00000+0  52894-3 0  9997
2 69271  51.8581  50.5397 0011646 186.5609 173.5225 15.34616270  4078
KUIPER-00572            
1 69272U 26118F   26168.78571661  .00016656  00000+0  46193-3 0  9997
2 69272  51.8673  50.4403 0007398 172.9186 187.1906 15.37030596  4077
KUIPER-00581            
1 69273U 26118G   26168.78979647  .00014946  00000+0  42054-3 0  9996
2 69273  51.8662  50.4653 0008830 176.6246 183.4801 15.36658408  4163
KUIPER-00584            
1 69274U 26118H   26168.83335647 -.00016336  00000+0 -47250-3 0  9999
2 69274  51.8612  50.4246 0011647 189.5820 325.5450 15.34340257  2679
KUIPER-00587            
1 69275U 26118J   26168.78913095  .00016283  00000+0  45651-3 0  9995
2 69275  51.8637  50.4587 0008051 179.8350 180.2640 15.36706660  4079
